CCSDS_OEM_VERS = 1.0
CREATION_DATE  = 2017-05-11T11:12:53
ORIGINATOR     = GMAT USER

META_START
OBJECT_NAME          = MOPSSat_alt_35785_km_RAAN_90_035
OBJECT_ID            = SatId
CENTER_NAME          = Earth
REF_FRAME            = EME2000
TIME_SYSTEM          = UTC
START_TIME           = 2017-01-01T00:00:00.000
USEABLE_START_TIME   = 2017-01-01T00:00:00.000
USEABLE_STOP_TIME    = 2017-01-02T00:00:00.000
STOP_TIME            = 2017-01-02T00:00:00.000
INTERPOLATION        = Lagrange
INTERPOLATION_DEGREE = 7 
META_STOP


                                                                                   

2017-01-01T05:11:40.000  -4.126095404134120e+04   8.672223842258336e+03   3.606303294627662e+02  -6.323510967985273e-01  -3.008917756897369e+00   5.564479870281739e-03
2017-01-01T05:11:50.000  -4.126726658091799e+04   8.642132362335162e+03   3.606858784955029e+02  -6.301567845584634e-01  -3.009378065711255e+00   5.545326374699278e-03
2017-01-01T05:12:00.000  -4.127355717570997e+04   8.612036287257566e+03   3.607412359785592e+02  -6.279621371589700e-01  -3.009836774232781e+00   5.526169910612467e-03
2017-01-01T05:12:10.000  -4.127982582239609e+04   8.581935632912575e+03   3.607964018825185e+02  -6.257671557584276e-01  -3.010293882219833e+00   5.507010488121417e-03
2017-01-01T05:12:20.000  -4.128607251765851e+04   8.551830415224251e+03   3.608513761779912e+02  -6.235718415179158e-01  -3.010749389430527e+00   5.487848117349851e-03
2017-01-01T05:12:30.000  -4.129229725817674e+04   8.521720650189451e+03   3.609061588355635e+02  -6.213761956038242e-01  -3.011203295622789e+00   5.468682808467839e-03
2017-01-01T05:12:40.000  -4.129850004064598e+04   8.491606353786217e+03   3.609607498259591e+02  -6.191802191811683e-01  -3.011655600555688e+00   5.449514571633516e-03
2017-01-01T05:12:50.000  -4.130468086169752e+04   8.461487542371013e+03   3.610151491193383e+02  -6.169839134425599e-01  -3.012106303983631e+00   5.430343417245915e-03
2017-01-01T05:13:00.000  -4.131083971799564e+04   8.431364232197429e+03   3.610693566861498e+02  -6.147872795731079e-01  -3.012555405663433e+00   5.411169355638619e-03
2017-01-01T05:13:10.000  -4.131697660620136e+04   8.401236439595117e+03   3.611233724968139e+02  -6.125903187634673e-01  -3.013002905351669e+00   5.391992397193642e-03
2017-01-01T05:13:20.000  -4.132309152311378e+04   8.371104180276776e+03   3.611771965229646e+02  -6.103930321593052e-01  -3.013448802814986e+00   5.372812551900337e-03
2017-01-01T05:13:30.000  -4.132918446552900e+04   8.340967470029364e+03   3.612308287362082e+02  -6.081954209117028e-01  -3.013893097819805e+00   5.353629829795342e-03
2017-01-01T05:13:40.000  -4.133525543027231e+04   8.310826324557529e+03   3.612842691084078e+02  -6.059974861657387e-01  -3.014335790134683e+00   5.334444240862937e-03
2017-01-01T05:13:50.000  -4.134130441411671e+04   8.280680759873358e+03   3.613375176109647e+02  -6.037992290889108e-01  -3.014776879524359e+00   5.315255795283119e-03
2017-01-01T05:14:00.000  -4.134733141384423e+04   8.250530792007195e+03   3.613905742153594e+02  -6.016006508500474e-01  -3.015216365754239e+00   5.296064503247530e-03
2017-01-01T05:14:10.000  -4.135333642624494e+04   8.220376437007370e+03   3.614434388931415e+02  -5.994017526192884e-01  -3.015654248590301e+00   5.276870374959288e-03
2017-01-01T05:14:20.000  -4.135931944806189e+04   8.190217711230718e+03   3.614961116154460e+02  -5.972025355892714e-01  -3.016090527795109e+00   5.257673420817921e-03
2017-01-01T05:14:30.000  -4.136528047606636e+04   8.160054630951501e+03   3.615485923536550e+02  -5.950030009466102e-01  -3.016525203133269e+00   5.238473651170412e-03
2017-01-01T05:14:40.000  -4.137121950702765e+04   8.129887212515365e+03   3.616008810791326e+02  -5.928031498831252e-01  -3.016958274369260e+00   5.219271076409229e-03
2017-01-01T05:14:50.000  -4.137713653784753e+04   8.099715471658607e+03   3.616529777644081e+02  -5.906029835462022e-01  -3.017389741277208e+00   5.200065706538973e-03
2017-01-01T05:15:00.000  -4.138303156542567e+04   8.069539424188861e+03   3.617048823819915e+02  -5.884025030884282e-01  -3.017819603631094e+00   5.180857551609704e-03
2017-01-01T05:15:10.000  -4.138890458669056e+04   8.039359085831265e+03   3.617565949046448e+02  -5.862017096563745e-01  -3.018247861206992e+00   5.161646621618988e-03
2017-01-01T05:15:20.000  -4.139475559852024e+04   8.009174472618741e+03   3.618081153046865e+02  -5.840006044190564e-01  -3.018674513777307e+00   5.142432926760326e-03
2017-01-01T05:15:30.000  -4.140058459780215e+04   7.978985600602393e+03   3.618594435545146e+02  -5.817991885468146e-01  -3.019099561115117e+00   5.123216477238839e-03
2017-01-01T05:15:40.000  -4.140639158143163e+04   7.948792485851270e+03   3.619105796265976e+02  -5.795974632112981e-01  -3.019523002994088e+00   5.103997283271075e-03
2017-01-01T05:15:50.000  -4.141217654625922e+04   7.918595144743226e+03   3.619615234930076e+02  -5.773954296066752e-01  -3.019944839184612e+00   5.084775355270194e-03
2017-01-01T05:16:00.000  -4.141793948916294e+04   7.888393593573356e+03   3.620122751260576e+02  -5.751930889210777e-01  -3.020365069459090e+00   5.065550703596703e-03
2017-01-01T05:16:10.000  -4.142368040701904e+04   7.858187848711083e+03   3.620628344980441e+02  -5.729904423480580e-01  -3.020783693589786e+00   5.046323338658447e-03
2017-01-01T05:16:20.000  -4.142939929683351e+04   7.827977925907126e+03   3.621132015824055e+02  -5.707874910360514e-01  -3.021200711358432e+00   5.027093270469468e-03
2017-01-01T05:16:30.000  -4.143509615561004e+04   7.797763840988236e+03   3.621633763525582e+02  -5.685842361390379e-01  -3.021616122546590e+00   5.007860509092234e-03
2017-01-01T05:16:40.000  -4.144077098038424e+04   7.767545609677893e+03   3.622133587821996e+02  -5.663806788034657e-01  -3.022029926938147e+00   4.988625064523505e-03
2017-01-01T05:16:50.000  -4.144642376813058e+04   7.737323248078338e+03   3.622631488444870e+02  -5.641768202034035e-01  -3.022442124312531e+00   4.969386947001162e-03
2017-01-01T05:17:00.000  -4.145205451583962e+04   7.707096772272841e+03   3.623127465127185e+02  -5.619726615115358e-01  -3.022852714450350e+00   4.950146166751040e-03
2017-01-01T05:17:10.000  -4.145766322050063e+04   7.676866198414456e+03   3.623621517601802e+02  -5.597682039056359e-01  -3.023261697132111e+00   4.930902734043422e-03
2017-01-01T05:17:20.000  -4.146324987910782e+04   7.646631542702158e+03   3.624113645602002e+02  -5.575634485668253e-01  -3.023669072138687e+00   4.911656659177850e-03
2017-01-01T05:17:30.000  -4.146881448866454e+04   7.616392821350462e+03   3.624603848861860e+02  -5.553583966773591e-01  -3.024074839251606e+00   4.892407952463801e-03
2017-01-01T05:17:40.000  -4.147435704618543e+04   7.586150050578563e+03   3.625092127116441e+02  -5.531530494198333e-01  -3.024478998253235e+00   4.873156624213737e-03
2017-01-01T05:17:50.000  -4.147987754871708e+04   7.555903246502299e+03   3.625578480103605e+02  -5.509474079693056e-01  -3.024881548928258e+00   4.853902684674372e-03
2017-01-01T05:18:00.000  -4.148537599332374e+04   7.525652425206064e+03   3.626062907562767e+02  -5.487414734985430e-01  -3.025282491062653e+00   4.834646144072428e-03
2017-01-01T05:18:10.000  -4.149085237708763e+04   7.495397602742867e+03   3.626545409234907e+02  -5.465352471780208e-01  -3.025681824443708e+00   4.815387012614668e-03
2017-01-01T05:18:20.000  -4.149630669712122e+04   7.465138795061996e+03   3.627025984863662e+02  -5.443287301706534e-01  -3.026079548860912e+00   4.796125300441872e-03
2017-01-01T05:18:30.000  -4.150173895054810e+04   7.434876018117367e+03   3.627504634193637e+02  -5.421219236396901e-01  -3.026475664104569e+00   4.776861017697782e-03
2017-01-01T05:18:40.000  -4.150714913450126e+04   7.404609287878417e+03   3.627981356970262e+02  -5.399148287495137e-01  -3.026870169965669e+00   4.757594174536059e-03
2017-01-01T05:18:50.000  -4.151253724611648e+04   7.374338620360029e+03   3.628456152939192e+02  -5.377074466678194e-01  -3.027263066235399e+00   4.738324781139302e-03
2017-01-01T05:19:00.000  -4.151790328252937e+04   7.344064031646989e+03   3.628929021846065e+02  -5.354997785674004e-01  -3.027654352704945e+00   4.719052847734654e-03
2017-01-01T05:19:10.000  -4.152324724089080e+04   7.313785537804828e+03   3.629399963437849e+02  -5.332918256196455e-01  -3.028044029166596e+00   4.699778384537018e-03
2017-01-01T05:19:20.000  -4.152856911829847e+04   7.283503155279166e+03   3.629868977456815e+02  -5.310835890236600e-01  -3.028432095408764e+00   4.680501402003288e-03
2017-01-01T05:19:30.000  -4.153386891188012e+04   7.253216900411858e+03   3.630336063647872e+02  -5.288750699709822e-01  -3.028818551222056e+00   4.661221910524327e-03
2017-01-01T05:19:40.000  -4.153914661876242e+04   7.222926789620860e+03   3.630801221755818e+02  -5.266662696586992e-01  -3.029203396397000e+00   4.641939920539477e-03
2017-01-01T05:19:50.000  -4.154440223619259e+04   7.192632838703534e+03   3.631264451536071e+02  -5.244571892386444e-01  -3.029586630732907e+00   4.622655442093044e-03
2017-01-01T05:20:00.000  -4.154963576141676e+04   7.162335063531528e+03   3.631725752743943e+02  -5.222478298680671e-01  -3.029968254029023e+00   4.603368485276657e-03
2017-01-01T05:20:10.000  -4.155484719170810e+04   7.132033479893393e+03   3.632185125137111e+02  -5.200381926981570e-01  -3.030348266086551e+00   4.584079060129073e-03
2017-01-01T05:20:20.000  -4.156003652429612e+04   7.101728103886489e+03   3.632642568469402e+02  -5.178282789026231e-01  -3.030726666703520e+00   4.564787176885653e-03
2017-01-01T05:20:30.000  -4.156520375641999e+04   7.071418951626149e+03   3.633098082495479e+02  -5.156180896564838e-01  -3.031103455678657e+00   4.545492845793235e-03
2017-01-01T05:20:40.000  -4.157034888532733e+04   7.041106039245476e+03   3.633551666970737e+02  -5.134076261360540e-01  -3.031478632811310e+00   4.526196077109990e-03
